ZACUBE-1 (TSHEPISOSAT)  
1 39417U 13066B   25124.14455671  .00006407  00000+0  56078-3 0  9992
2 39417  97.7765  81.3687 0044790 171.5254 188.6733 14.96288105619465
GOMX-1                  
1 39430U 13066Q   25124.14525532  .00002817  00000+0  44444-3 0  9996
2 39430  97.6880 345.0399 0131593 309.5317  49.4317 14.67503405610068
CUBEBUG-2 (LO-74)       
1 39440U 13066AA  25123.80443169  .00007540  00000+0  76713-3 0  9996
2 39440  97.8473  68.6319 0060789 302.5651  56.9705 14.89663627615966
FUNCUBE-1 (AO-73)       
1 39444U 13066AE  25123.84103266  .00010605  00000+0  80321-3 0  9991
2 39444  97.7782  85.6336 0041995 149.1748 211.1955 15.01760249618070
UWE-3                   
1 39446U 13066AG  25123.80321139  .00006611  00000+0  63121-3 0  9991
2 39446  97.8210  74.9461 0051764 240.0933 119.5139 14.92612813616425
UNISAT-6                
1 40012U 14033C   25124.16394729  .00004344  00000+0  50572-3 0  9999
2 40012  97.7386 281.3851 0047180 335.8830  24.0176 14.84989616585393
DUCHIFAT-1              
1 40021U 14033M   25123.97866620  .00029022  00000+0  10947-2 0  9992
2 40021  98.0980 135.1802 0011316  88.7500 271.5033 15.26951934592735
QB50P1                  
1 40025U 14033R   25124.16687203  .00011228  00000+0  69591-3 0  9995
2 40025  98.0815 104.7567 0010762 168.4044 191.7433 15.09892271591655
LILACSAT-2              
1 40908U 15049K   25124.18658407  .00015466  00000+0  41472-3 0  9995
2 40908  97.5091 143.6733 0007344 294.5126  65.5352 15.38045923532633
FOX-1A (AO-85)          
1 40967U 15058D   25124.23741777  .00003887  00000+0  34390-3 0  9994
2 40967  64.7747 106.8451 0165940 207.1495 152.0869 14.87812691 52668
CAS-2T & KS-1Q          
1 41847U 16066G   25123.94176667  .00001270  00000+0  19134-3 0  9992
2 41847  98.4208 198.7201 0345271 289.4220  66.9964 14.43385733445738
ZHUHAI-1 02 (CAS-4B)    
1 42759U 17034B   25124.18984072  .00065821  00000+0  82022-3 0  9993
2 42759  43.0072 178.0398 0018582  32.9326 327.2691 15.58824828436914
ZHUHAI-1 01 (CAS-4A)    
1 42761U 17034D   25124.18507369  .00066916  00000+0  80233-3 0  9994
2 42761  43.0107 175.5710 0019778  37.7232 322.5015 15.59801417436933
RADFXSAT (FOX-1B)       
1 43017U 17073E   25123.87821184  .00009986  00000+0  51984-3 0  9996
2 43017  97.5292 355.5841 0172758 291.8416  66.4513 15.04153924403694
