[
  {
    "OBJECT_NAME": "ZACUBE-1 (TSHEPISOSAT)",
    "OBJECT_ID": "2013-066B",
    "EPOCH": "2025-05-04T03:28:09.699744",
    "MEAN_MOTION": 14.96288105,
    "ECCENTRICITY": 0.004479,
    "INCLINATION": 97.7765,
    "RA_OF_ASC_NODE": 81.3687,
    "ARG_OF_PERICENTER": 171.5254,
    "MEAN_ANOMALY": 188.6733,
    "EPHEMERIS_TYPE": 0,
    "CLASSIFICATION_TYPE": "U",
    "NORAD_CAT_ID": 39417,
    "ELEMENT_SET_NO": 999,
    "REV_AT_EPOCH": 61946,
    "BSTAR": 0.00056078,
    "MEAN_MOTION_DOT": 6.407e-05,
    "MEAN_MOTION_DDOT": 0
  },
  {
    "OBJECT_NAME": "GOMX-1",
    "OBJECT_ID": "2013-066Q",
    "EPOCH": "2025-05-04T03:29:10.059648",
    "MEAN_MOTION": 14.67503405,
    "ECCENTRICITY": 0.0131593,
    "INCLINATION": 97.688,
    "RA_OF_ASC_NODE": 345.0399,
    "ARG_OF_PERICENTER": 309.5317,
    "MEAN_ANOMALY": 49.4317,
    "EPHEMERIS_TYPE": 0,
    "CLASSIFICATION_TYPE": "U",
    "NORAD_CAT_ID": 39430,
    "ELEMENT_SET_NO": 999,
    "REV_AT_EPOCH": 61006,
    "BSTAR": 0.00044444,
    "MEAN_MOTION_DOT": 2.817e-05,
    "MEAN_MOTION_DDOT": 0
  },
  {
    "OBJECT_NAME": "CUBEBUG-2 (LO-74)",
    "OBJECT_ID": "2013-066AA",
    "EPOCH": "2025-05-03T19:18:22.898016",
    "MEAN_MOTION": 14.89663627,
    "ECCENTRICITY": 0.0060789,
    "INCLINATION": 97.8473,
    "RA_OF_ASC_NODE": 68.6319,
    "ARG_OF_PERICENTER": 302.5651,
    "MEAN_ANOMALY": 56.9705,
    "EPHEMERIS_TYPE": 0,
    "CLASSIFICATION_TYPE": "U",
    "NORAD_CAT_ID": 39440,
    "ELEMENT_SET_NO": 999,
    "REV_AT_EPOCH": 61596,
    "BSTAR": 0.00076713,
    "MEAN_MOTION_DOT": 7.54e-05,
    "MEAN_MOTION_DDOT": 0
  },
  {
    "OBJECT_NAME": "FUNCUBE-1 (AO-73)",
    "OBJECT_ID": "2013-066AE",
    "EPOCH": "2025-05-03T20:11:05.221824",
    "MEAN_MOTION": 15.01760249,
    "ECCENTRICITY": 0.0041995,
    "INCLINATION": 97.7782,
    "RA_OF_ASC_NODE": 85.6336,
    "ARG_OF_PERICENTER": 149.1748,
    "MEAN_ANOMALY": 211.1955,
    "EPHEMERIS_TYPE": 0,
    "CLASSIFICATION_TYPE": "U",
    "NORAD_CAT_ID": 39444,
    "ELEMENT_SET_NO": 999,
    "REV_AT_EPOCH": 61807,
    "BSTAR": 0.00080321,
    "MEAN_MOTION_DOT": 0.00010605,
    "MEAN_MOTION_DDOT": 0
  },
  {
    "OBJECT_NAME": "UWE-3",
    "OBJECT_ID": "2013-066AG",
    "EPOCH": "2025-05-03T19:16:37.464096",
    "MEAN_MOTION": 14.92612813,
    "ECCENTRICITY": 0.0051764,
    "INCLINATION": 97.821,
    "RA_OF_ASC_NODE": 74.9461,
    "ARG_OF_PERICENTER": 240.0933,
    "MEAN_ANOMALY": 119.5139,
    "EPHEMERIS_TYPE": 0,
    "CLASSIFICATION_TYPE": "U",
    "NORAD_CAT_ID": 39446,
    "ELEMENT_SET_NO": 999,
    "REV_AT_EPOCH": 61642,
    "BSTAR": 0.00063121,
    "MEAN_MOTION_DOT": 6.611e-05,
    "MEAN_MOTION_DDOT": 0
  },
  {
    "OBJECT_NAME": "UNISAT-6",
    "OBJECT_ID": "2014-033C",
    "EPOCH": "2025-05-04T03:56:05.045856",
    "MEAN_MOTION": 14.84989616,
    "ECCENTRICITY": 0.004718,
    "INCLINATION": 97.7386,
    "RA_OF_ASC_NODE": 281.3851,
    "ARG_OF_PERICENTER": 335.883,
    "MEAN_ANOMALY": 24.0176,
    "EPHEMERIS_TYPE": 0,
    "CLASSIFICATION_TYPE": "U",
    "NORAD_CAT_ID": 40012,
    "ELEMENT_SET_NO": 999,
    "REV_AT_EPOCH": 58539,
    "BSTAR": 0.00050572,
    "MEAN_MOTION_DOT": 4.344e-05,
    "MEAN_MOTION_DDOT": 0
  },
  {
    "OBJECT_NAME": "DUCHIFAT-1",
    "OBJECT_ID": "2014-033M",
    "EPOCH": "2025-05-03T23:29:16.759680",
    "MEAN_MOTION": 15.26951934,
    "ECCENTRICITY": 0.0011316,
    "INCLINATION": 98.098,
    "RA_OF_ASC_NODE": 135.1802,
    "ARG_OF_PERICENTER": 88.75,
    "MEAN_ANOMALY": 271.5033,
    "EPHEMERIS_TYPE": 0,
    "CLASSIFICATION_TYPE": "U",
    "NORAD_CAT_ID": 40021,
    "ELEMENT_SET_NO": 999,
    "REV_AT_EPOCH": 59273,
    "BSTAR": 0.0010947,
    "MEAN_MOTION_DOT": 0.00029022,
    "MEAN_MOTION_DDOT": 0
  },
  {
    "OBJECT_NAME": "QB50P1",
    "OBJECT_ID": "2014-033R",
    "EPOCH": "2025-05-04T04:00:17.743392",
    "MEAN_MOTION": 15.09892271,
    "ECCENTRICITY": 0.0010762,
    "INCLINATION": 98.0815,
    "RA_OF_ASC_NODE": 104.7567,
    "ARG_OF_PERICENTER": 168.4044,
    "MEAN_ANOMALY": 191.7433,
    "EPHEMERIS_TYPE": 0,
    "CLASSIFICATION_TYPE": "U",
    "NORAD_CAT_ID": 40025,
    "ELEMENT_SET_NO": 999,
    "REV_AT_EPOCH": 59165,
    "BSTAR": 0.00069591,
    "MEAN_MOTION_DOT": 0.00011228,
    "MEAN_MOTION_DDOT": 0
  },
  {
    "OBJECT_NAME": "LILACSAT-2",
    "OBJECT_ID": "2015-049K",
    "EPOCH": "2025-05-04T04:28:40.863648",
    "MEAN_MOTION": 15.38045923,
    "ECCENTRICITY": 0.0007344,
    "INCLINATION": 97.5091,
    "RA_OF_ASC_NODE": 143.6733,
    "ARG_OF_PERICENTER": 294.5126,
    "MEAN_ANOMALY": 65.5352,
    "EPHEMERIS_TYPE": 0,
    "CLASSIFICATION_TYPE": "U",
    "NORAD_CAT_ID": 40908,
    "ELEMENT_SET_NO": 999,
    "REV_AT_EPOCH": 53263,
    "BSTAR": 0.00041472,
    "MEAN_MOTION_DOT": 0.00015466,
    "MEAN_MOTION_DDOT": 0
  },
  {
    "OBJECT_NAME": "FOX-1A (AO-85)",
    "OBJECT_ID": "2015-058D",
    "EPOCH": "2025-05-04T05:41:52.895328",
    "MEAN_MOTION": 14.87812691,
    "ECCENTRICITY": 0.016594,
    "INCLINATION": 64.7747,
    "RA_OF_ASC_NODE": 106.8451,
    "ARG_OF_PERICENTER": 207.1495,
    "MEAN_ANOMALY": 152.0869,
    "EPHEMERIS_TYPE": 0,
    "CLASSIFICATION_TYPE": "U",
    "NORAD_CAT_ID": 40967,
    "ELEMENT_SET_NO": 999,
    "REV_AT_EPOCH": 5266,
    "BSTAR": 0.0003439,
    "MEAN_MOTION_DOT": 3.887e-05,
    "MEAN_MOTION_DDOT": 0
  },
  {
    "OBJECT_NAME": "CAS-2T & KS-1Q",
    "OBJECT_ID": "2016-066G",
    "EPOCH": "2025-05-03T22:36:08.640288",
    "MEAN_MOTION": 14.43385733,
    "ECCENTRICITY": 0.0345271,
    "INCLINATION": 98.4208,
    "RA_OF_ASC_NODE": 198.7201,
    "ARG_OF_PERICENTER": 289.422,
    "MEAN_ANOMALY": 66.9964,
    "EPHEMERIS_TYPE": 0,
    "CLASSIFICATION_TYPE": "U",
    "NORAD_CAT_ID": 41847,
    "ELEMENT_SET_NO": 999,
    "REV_AT_EPOCH": 44573,
    "BSTAR": 0.00019134,
    "MEAN_MOTION_DOT": 1.27e-05,
    "MEAN_MOTION_DDOT": 0
  },
  {
    "OBJECT_NAME": "ZHUHAI-1 02 (CAS-4B)",
    "OBJECT_ID": "2017-034B",
    "EPOCH": "2025-05-04T04:33:22.238208",
    "MEAN_MOTION": 15.58824828,
    "ECCENTRICITY": 0.0018582,
    "INCLINATION": 43.0072,
    "RA_OF_ASC_NODE": 178.0398,
    "ARG_OF_PERICENTER": 32.9326,
    "MEAN_ANOMALY": 327.2691,
    "EPHEMERIS_TYPE": 0,
    "CLASSIFICATION_TYPE": "U",
    "NORAD_CAT_ID": 42759,
    "ELEMENT_SET_NO": 999,
    "REV_AT_EPOCH": 43691,
    "BSTAR": 0.00082022,
    "MEAN_MOTION_DOT": 0.00065821,
    "MEAN_MOTION_DDOT": 0
  },
  {
    "OBJECT_NAME": "ZHUHAI-1 01 (CAS-4A)",
    "OBJECT_ID": "2017-034D",
    "EPOCH": "2025-05-04T04:26:30.366816",
    "MEAN_MOTION": 15.59801417,
    "ECCENTRICITY": 0.0019778,
    "INCLINATION": 43.0107,
    "RA_OF_ASC_NODE": 175.571,
    "ARG_OF_PERICENTER": 37.7232,
    "MEAN_ANOMALY": 322.5015,
    "EPHEMERIS_TYPE": 0,
    "CLASSIFICATION_TYPE": "U",
    "NORAD_CAT_ID": 42761,
    "ELEMENT_SET_NO": 999,
    "REV_AT_EPOCH": 43693,
    "BSTAR": 0.00080233,
    "MEAN_MOTION_DOT": 0.00066916,
    "MEAN_MOTION_DDOT": 0
  },
  {
    "OBJECT_NAME": "RADFXSAT (FOX-1B)",
    "OBJECT_ID": "2017-073E",
    "EPOCH": "2025-05-03T21:04:37.502976",
    "MEAN_MOTION": 15.04153924,
    "ECCENTRICITY": 0.0172758,
    "INCLINATION": 97.5292,
    "RA_OF_ASC_NODE": 355.5841,
    "ARG_OF_PERICENTER": 291.8416,
    "MEAN_ANOMALY": 66.4513,
    "EPHEMERIS_TYPE": 0,
    "CLASSIFICATION_TYPE": "U",
    "NORAD_CAT_ID": 43017,
    "ELEMENT_SET_NO": 999,
    "REV_AT_EPOCH": 40369,
    "BSTAR": 0.00051984,
    "MEAN_MOTION_DOT": 9.986e-05,
    "MEAN_MOTION_DDOT": 0
  }
]